[{"OBJECT_NAME":"STARLINK-1331","OBJECT_ID":"2020-025AZ","EPOCH":"2026-03-09T23:01:45.024960","MEAN_MOTION":15.48337818,"ECCENTRICITY":0.00048402,"INCLINATION":53.0535,"RA_OF_ASC_NODE":63.873,"ARG_OF_PERICENTER":82.5874,"MEAN_ANOMALY":277.5683,"EPHEMERIS_TYPE":0,"CLASSIFICATION_TYPE":"U","NORAD_CAT_ID":45578,"ELEMENT_SET_NO":999,"REV_AT_EPOCH":32572,"BSTAR":0.0018648663,"MEAN_MOTION_DOT":0.0010115,"MEAN_MOTION_DDOT":0},{"OBJECT_NAME":"OBJECT A","OBJECT_ID":"2024-016A","EPOCH":"2026-03-09T23:08:49.859808","MEAN_MOTION":15.48922607,"ECCENTRICITY":0.00067805,"INCLINATION":97.4468,"RA_OF_ASC_NODE":160.686,"ARG_OF_PERICENTER":66.6312,"MEAN_ANOMALY":293.5651,"EPHEMERIS_TYPE":0,"CLASSIFICATION_TYPE":"U","NORAD_CAT_ID":58820,"ELEMENT_SET_NO":999,"REV_AT_EPOCH":11868,"BSTAR":0.00061930458,"MEAN_MOTION_DOT":0.00033448,"MEAN_MOTION_DDOT":0}]
